{"fetched_at":"2026-07-13T18:16:56.496Z","source":"https://celestrak.org/NORAD/elements/gp.php?NAME=HAWK&FORMAT=JSON","constellation":"hawkeye-360","records":[{"OBJECT_NAME":"HAWK-7B","OBJECT_ID":"2023-054R","EPOCH":"2026-07-12T23:40:22.763712","CLASSIFICATION_TYPE":"U","MEAN_MOTION":15.27616354,"ECCENTRICITY":0.00015871,"INCLINATION":97.2698,"RA_OF_ASC_NODE":78.9411,"ARG_OF_PERICENTER":20.8733,"MEAN_ANOMALY":339.2571,"EPHEMERIS_TYPE":0,"NORAD_CAT_ID":56193,"ELEMENT_SET_NO":999,"REV_AT_EPOCH":18096,"BSTAR":0.00012220327,"MEAN_MOTION_DOT":0.00003227,"MEAN_MOTION_DDOT":0},{"OBJECT_NAME":"HAWK-7C","OBJECT_ID":"2023-054Y","EPOCH":"2026-07-13T01:14:31.942176","CLASSIFICATION_TYPE":"U","MEAN_MOTION":15.27620878,"ECCENTRICITY":0.0001126,"INCLINATION":97.2677,"RA_OF_ASC_NODE":79.7659,"ARG_OF_PERICENTER":4.3519,"MEAN_ANOMALY":355.773,"EPHEMERIS_TYPE":0,"NORAD_CAT_ID":56200,"ELEMENT_SET_NO":999,"REV_AT_EPOCH":18097,"BSTAR":0.00013099151,"MEAN_MOTION_DOT":0.00003465,"MEAN_MOTION_DDOT":0},{"OBJECT_NAME":"HAWK-8A","OBJECT_ID":"2024-066B","EPOCH":"2026-07-13T05:34:54.070464","CLASSIFICATION_TYPE":"U","MEAN_MOTION":14.99282951,"ECCENTRICITY":0.0002852,"INCLINATION":45.5951,"RA_OF_ASC_NODE":141.9657,"ARG_OF_PERICENTER":211.4125,"MEAN_ANOMALY":148.6586,"EPHEMERIS_TYPE":0,"NORAD_CAT_ID":59443,"ELEMENT_SET_NO":999,"REV_AT_EPOCH":12374,"BSTAR":0.00006717715,"MEAN_MOTION_DOT":0.00000601,"MEAN_MOTION_DDOT":0},{"OBJECT_NAME":"HAWK-8B","OBJECT_ID":"2024-066D","EPOCH":"2026-07-13T00:47:43.451520","CLASSIFICATION_TYPE":"U","MEAN_MOTION":14.99278755,"ECCENTRICITY":0.00029994,"INCLINATION":45.6177,"RA_OF_ASC_NODE":144.9724,"ARG_OF_PERICENTER":214.4965,"MEAN_ANOMALY":145.5722,"EPHEMERIS_TYPE":0,"NORAD_CAT_ID":59445,"ELEMENT_SET_NO":999,"REV_AT_EPOCH":12370,"BSTAR":0.000042630294,"MEAN_MOTION_DOT":0.00000297,"MEAN_MOTION_DDOT":0},{"OBJECT_NAME":"HAWK-9A","OBJECT_ID":"2024-066E","EPOCH":"2026-07-13T04:32:21.539616","CLASSIFICATION_TYPE":"U","MEAN_MOTION":14.99211973,"ECCENTRICITY":0.00026034,"INCLINATION":45.6092,"RA_OF_ASC_NODE":142.8306,"ARG_OF_PERICENTER":196.9778,"MEAN_ANOMALY":163.1016,"EPHEMERIS_TYPE":0,"NORAD_CAT_ID":59446,"ELEMENT_SET_NO":999,"REV_AT_EPOCH":12373,"BSTAR":0.000078005915,"MEAN_MOTION_DOT":0.00000733,"MEAN_MOTION_DDOT":0},{"OBJECT_NAME":"HAWK-9C","OBJECT_ID":"2024-066G","EPOCH":"2026-07-13T06:08:41.563104","CLASSIFICATION_TYPE":"U","MEAN_MOTION":14.99210143,"ECCENTRICITY":0.00033049,"INCLINATION":45.6064,"RA_OF_ASC_NODE":141.5799,"ARG_OF_PERICENTER":184.0217,"MEAN_ANOMALY":176.0638,"EPHEMERIS_TYPE":0,"NORAD_CAT_ID":59448,"ELEMENT_SET_NO":999,"REV_AT_EPOCH":12374,"BSTAR":0.000082860053,"MEAN_MOTION_DOT":0.00000793,"MEAN_MOTION_DDOT":0},{"OBJECT_NAME":"HAWK-8C","OBJECT_ID":"2024-066H","EPOCH":"2026-07-12T21:35:03.458976","CLASSIFICATION_TYPE":"U","MEAN_MOTION":14.99286186,"ECCENTRICITY":0.00026202,"INCLINATION":45.6071,"RA_OF_ASC_NODE":144.6842,"ARG_OF_PERICENTER":220.9584,"MEAN_ANOMALY":139.1101,"EPHEMERIS_TYPE":0,"NORAD_CAT_ID":59449,"ELEMENT_SET_NO":999,"REV_AT_EPOCH":12368,"BSTAR":0.000069623355,"MEAN_MOTION_DOT":0.00000631,"MEAN_MOTION_DDOT":0},{"OBJECT_NAME":"HAWK-9B","OBJECT_ID":"2024-066J","EPOCH":"2026-07-13T06:08:44.111904","CLASSIFICATION_TYPE":"U","MEAN_MOTION":14.99213014,"ECCENTRICITY":0.00026137,"INCLINATION":45.6132,"RA_OF_ASC_NODE":143.4216,"ARG_OF_PERICENTER":173.9265,"MEAN_ANOMALY":186.1649,"EPHEMERIS_TYPE":0,"NORAD_CAT_ID":59450,"ELEMENT_SET_NO":999,"REV_AT_EPOCH":12374,"BSTAR":0.000077490648,"MEAN_MOTION_DOT":0.00000727,"MEAN_MOTION_DDOT":0},{"OBJECT_NAME":"HAWK-10A","OBJECT_ID":"2024-149CA","EPOCH":"2026-07-12T18:39:51.431904","CLASSIFICATION_TYPE":"U","MEAN_MOTION":14.96590356,"ECCENTRICITY":0.00033849,"INCLINATION":97.6892,"RA_OF_ASC_NODE":269.2496,"ARG_OF_PERICENTER":14.2777,"MEAN_ANOMALY":345.8539,"EPHEMERIS_TYPE":0,"NORAD_CAT_ID":60540,"ELEMENT_SET_NO":999,"REV_AT_EPOCH":10381,"BSTAR":0.000054060649,"MEAN_MOTION_DOT":0.00000558,"MEAN_MOTION_DDOT":0},{"OBJECT_NAME":"HAWK-10B","OBJECT_ID":"2024-149CF","EPOCH":"2026-07-12T18:39:39.435264","CLASSIFICATION_TYPE":"U","MEAN_MOTION":14.96589458,"ECCENTRICITY":0.00057186,"INCLINATION":97.6811,"RA_OF_ASC_NODE":268.5786,"ARG_OF_PERICENTER":23.3723,"MEAN_ANOMALY":336.7757,"EPHEMERIS_TYPE":0,"NORAD_CAT_ID":60545,"ELEMENT_SET_NO":999,"REV_AT_EPOCH":10381,"BSTAR":0.000046372254,"MEAN_MOTION_DOT":0.00000471,"MEAN_MOTION_DDOT":0},{"OBJECT_NAME":"HAWK-10C","OBJECT_ID":"2024-149DM","EPOCH":"2026-07-13T04:17:48.513408","CLASSIFICATION_TYPE":"U","MEAN_MOTION":14.96588541,"ECCENTRICITY":0.00028624,"INCLINATION":97.6729,"RA_OF_ASC_NODE":268.2851,"ARG_OF_PERICENTER":359.6238,"MEAN_ANOMALY":0.4981,"EPHEMERIS_TYPE":0,"NORAD_CAT_ID":60575,"ELEMENT_SET_NO":999,"REV_AT_EPOCH":10387,"BSTAR":0.000032744501,"MEAN_MOTION_DOT":0.00000316,"MEAN_MOTION_DDOT":0},{"OBJECT_NAME":"HAWK-11B","OBJECT_ID":"2024-247C","EPOCH":"2026-07-13T05:06:00.962496","CLASSIFICATION_TYPE":"U","MEAN_MOTION":15.30649744,"ECCENTRICITY":0.00032508,"INCLINATION":45.0139,"RA_OF_ASC_NODE":147.0513,"ARG_OF_PERICENTER":9.6072,"MEAN_ANOMALY":350.4874,"EPHEMERIS_TYPE":0,"NORAD_CAT_ID":62379,"ELEMENT_SET_NO":999,"REV_AT_EPOCH":8699,"BSTAR":0.00015994038,"MEAN_MOTION_DOT":0.00004526,"MEAN_MOTION_DDOT":0},{"OBJECT_NAME":"HAWK-11C","OBJECT_ID":"2024-247E","EPOCH":"2026-07-12T22:49:26.556384","CLASSIFICATION_TYPE":"U","MEAN_MOTION":15.3064518,"ECCENTRICITY":0.00042515,"INCLINATION":45.0023,"RA_OF_ASC_NODE":147.8181,"ARG_OF_PERICENTER":357.0546,"MEAN_ANOMALY":3.0312,"EPHEMERIS_TYPE":0,"NORAD_CAT_ID":62381,"ELEMENT_SET_NO":999,"REV_AT_EPOCH":8695,"BSTAR":0.00017186451,"MEAN_MOTION_DOT":0.00004886,"MEAN_MOTION_DDOT":0},{"OBJECT_NAME":"HAWK-11A","OBJECT_ID":"2024-247F","EPOCH":"2026-07-13T05:05:29.002272","CLASSIFICATION_TYPE":"U","MEAN_MOTION":15.30642054,"ECCENTRICITY":0.00037112,"INCLINATION":44.9921,"RA_OF_ASC_NODE":145.7169,"ARG_OF_PERICENTER":358.501,"MEAN_ANOMALY":1.5862,"EPHEMERIS_TYPE":0,"NORAD_CAT_ID":62382,"ELEMENT_SET_NO":999,"REV_AT_EPOCH":8699,"BSTAR":0.00014642958,"MEAN_MOTION_DOT":0.00004117,"MEAN_MOTION_DDOT":0},{"OBJECT_NAME":"HAWK-12C","OBJECT_ID":"2025-138A","EPOCH":"2026-07-12T22:38:04.671168","CLASSIFICATION_TYPE":"U","MEAN_MOTION":15.18395728,"ECCENTRICITY":0.00154541,"INCLINATION":97.4346,"RA_OF_ASC_NODE":195.9524,"ARG_OF_PERICENTER":58.2475,"MEAN_ANOMALY":302.0263,"EPHEMERIS_TYPE":0,"NORAD_CAT_ID":64621,"ELEMENT_SET_NO":999,"REV_AT_EPOCH":5777,"BSTAR":0.00013027181,"MEAN_MOTION_DOT":0.00002618,"MEAN_MOTION_DDOT":0},{"OBJECT_NAME":"HAWK-12B","OBJECT_ID":"2025-138B","EPOCH":"2026-07-12T22:38:19.653792","CLASSIFICATION_TYPE":"U","MEAN_MOTION":15.18395184,"ECCENTRICITY":0.00143212,"INCLINATION":97.447,"RA_OF_ASC_NODE":196.6423,"ARG_OF_PERICENTER":54.5841,"MEAN_ANOMALY":305.6728,"EPHEMERIS_TYPE":0,"NORAD_CAT_ID":64622,"ELEMENT_SET_NO":999,"REV_AT_EPOCH":5777,"BSTAR":0.00012900856,"MEAN_MOTION_DOT":0.00002591,"MEAN_MOTION_DDOT":0}]}
