HAWK-7B                 
1 56193U 23054R   26193.98637458  .00003227  00000+0  12220-3 0  9992
2 56193  97.2698  78.9411 0001587  20.8733 339.2571 15.27616354180965
HAWK-7C                 
1 56200U 23054Y   26194.05175859  .00003465  00000+0  13099-3 0  9991
2 56200  97.2677  79.7659 0001126   4.3519 355.7730 15.27620878180979
HAWK-8A                 
1 59443U 24066B   26194.23257026  .00000601  00000+0  67177-4 0  9990
2 59443  45.5951 141.9657 0002852 211.4125 148.6586 14.99282951123747
HAWK-8B                 
1 59445U 24066D   26194.03314180  .00000297  00000+0  42630-4 0  9993
2 59445  45.6177 144.9724 0002999 214.4965 145.5722 14.99278755123706
HAWK-9A                 
1 59446U 24066E   26194.18913819  .00000733  00000+0  78006-4 0  9995
2 59446  45.6092 142.8306 0002603 196.9778 163.1016 14.99211973123738
HAWK-9C                 
1 59448U 24066G   26194.25603661  .00000793  00000+0  82860-4 0  9995
2 59448  45.6064 141.5799 0003304 184.0217 176.0638 14.99210143123748
HAWK-8C                 
1 59449U 24066H   26193.89934559  .00000631  00000+0  69623-4 0  9991
2 59449  45.6071 144.6842 0002620 220.9584 139.1101 14.99286186123685
HAWK-9B                 
1 59450U 24066J   26194.25606611  .00000727  00000+0  77491-4 0  9997
2 59450  45.6132 143.4216 0002613 173.9265 186.1649 14.99213014123748
HAWK-10A                
1 60540U 24149CA  26193.77767861  .00000558  00000+0  54061-4 0  9992
2 60540  97.6892 269.2496 0003384  14.2777 345.8539 14.96590356103810
HAWK-10B                
1 60545U 24149CF  26193.77753976  .00000471  00000+0  46372-4 0  9999
2 60545  97.6811 268.5786 0005718  23.3723 336.7757 14.96589458103817
HAWK-10C                
1 60575U 24149DM  26194.17903372  .00000316  00000+0  32745-4 0  9991
2 60575  97.6729 268.2851 0002862 359.6238   0.4981 14.96588541103873
HAWK-11B                
1 62379U 24247C   26194.21251114  .00004526  00000+0  15994-3 0  9992
2 62379  45.0139 147.0513 0003250   9.6072 350.4874 15.30649744 86992
HAWK-11C                
1 62381U 24247E   26193.95100181  .00004886  00000+0  17186-3 0  9996
2 62381  45.0023 147.8181 0004251 357.0546   3.0312 15.30645180 86958
HAWK-11A                
1 62382U 24247F   26194.21214123  .00004117  00000+0  14643-3 0  9991
2 62382  44.9921 145.7169 0003711 358.5010   1.5862 15.30642054 86993
HAWK-12C                
1 64621U 25138A   26193.94310962  .00002618  00000+0  13027-3 0  9995
2 64621  97.4346 195.9524 0015454  58.2475 302.0263 15.18395728 57770
HAWK-12B                
1 64622U 25138B   26193.94328303  .00002591  00000+0  12901-3 0  9994
2 64622  97.4470 196.6423 0014321  54.5841 305.6728 15.18395184 57774
